{
    "links": {
        "self": "http://www.neowsapp.com/rest/v1/neo/3413074?api_key=iIulBulltgU6a56xZRHN4H3l9WmuAYTsLGpBGhQ2"
    },
    "id": "3413074",
    "neo_reference_id": "3413074",
    "name": "(2008 LB)",
    "designation": "2008 LB",
    "nasa_jpl_url": "http://ssd.jpl.nasa.gov/sbdb.cgi?sstr=3413074",
    "absolute_magnitude_h": 26.7,
    "estimated_diameter": {
        "kilometers": {
            "estimated_diameter_min": 0.0121494041,
            "estimated_diameter_max": 0.0271668934
        },
        "meters": {
            "estimated_diameter_min": 12.14940408,
            "estimated_diameter_max": 27.1668934089
        },
        "miles": {
            "estimated_diameter_min": 0.0075492874,
            "estimated_diameter_max": 0.0168807197
        },
        "feet": {
            "estimated_diameter_min": 39.8602508817,
            "estimated_diameter_max": 89.1302305717
        }
    },
    "is_potentially_hazardous_asteroid": false,
    "close_approach_data": [
        {
            "close_approach_date": "1927-05-19",
            "close_approach_date_full": "1927-May-19 11:22",
            "epoch_date_close_approach": -1345034280000,
            "relative_velocity": {
                "kilometers_per_second": "15.102484613",
                "kilometers_per_hour": "54368.9446067554",
                "miles_per_hour": "33782.747830792"
            },
            "miss_distance": {
                "astronomical": "0.0665423417",
                "lunar": "25.8849709213",
                "kilometers": "9954592.583132179",
                "miles": "6185497.0058509102"
            },
            "orbiting_body": "Earth"
        },
        {
            "close_approach_date": "2008-06-09",
            "close_approach_date_full": "2008-Jun-09 17:42",
            "epoch_date_close_approach": 1213033320000,
            "relative_velocity": {
                "kilometers_per_second": "11.0761302124",
                "kilometers_per_hour": "39874.0687648045",
                "miles_per_hour": "24776.1956722198"
            },
            "miss_distance": {
                "astronomical": "0.0088055123",
                "lunar": "3.4253442847",
                "kilometers": "1317285.884338801",
                "miles": "818523.4930894138"
            },
            "orbiting_body": "Earth"
        }
    ],
    "orbital_data": {
        "orbit_id": "11",
        "orbit_determination_date": "2017-04-06 09:03:19",
        "first_observation_date": "2008-06-01",
        "last_observation_date": "2008-06-09",
        "data_arc_in_days": 8,
        "observations_used": 33,
        "orbit_uncertainty": "8",
        "minimum_orbit_intersection": ".00105348",
        "jupiter_tisserand_invariant": "3.178",
        "epoch_osculation": "2454622.5",
        "eccentricity": ".6140703195729438",
        "semi_major_axis": "2.491382730838492",
        "inclination": "4.31999762466611",
        "ascending_node_longitude": "80.10670343136965",
        "orbital_period": "1436.346106699814",
        "perihelion_distance": ".9614985411339859",
        "perihelion_argument": "211.4780878510821",
        "aphelion_distance": "4.021266920542998",
        "perihelion_time": "2454652.381032986496",
        "mean_anomaly": "352.5107383067619",
        "mean_motion": ".2506359702029932",
        "equinox": "J2000",
        "orbit_class": {
            "orbit_class_type": "APO",
            "orbit_class_description": "Near-Earth asteroid orbits which cross the Earth’s orbit similar to that of 1862 Apollo",
            "orbit_class_range": "a (semi-major axis) > 1.0 AU; q (perihelion) < 1.017 AU"
        }
    },
    "is_sentry_object": false
}